{
  "type": "FeatureCollection",
  "features": [
    {
      "type": "Feature",
      "properties": {
        "norad_id": 30050,
        "name": "FENGYUN 1C DEB",
        "group": "fengyun-1c-debris",
        "lat": -22.59875360352176,
        "lon": 121.52301780684616,
        "alt_km": 1071.2333132824142,
        "timestamp": "2025-12-09T05:43:20.999139+00:00",
        "meta_object_name": "FENGYUN 1C DEB",
        "meta_object_id": "1999-025PB",
        "meta_epoch": "2025-12-08T20:21:32.762304",
        "meta_mean_motion": 13.85031252,
        "meta_eccentricity": 0.0171652,
        "meta_inclination": 96.8178,
        "meta_ra_of_asc_node": 304.0931,
        "meta_arg_of_pericenter": 41.1757,
        "meta_mean_anomaly": 16.7092,
        "meta_ephemeris_type": 0,
        "meta_classification_type": "U",
        "meta_norad_cat_id": 30050,
        "meta_element_set_no": 999,
        "meta_rev_at_epoch": 95148,
        "meta_bstar": 0.002299,
        "meta_mean_motion_dot": 2.892e-05,
        "meta_mean_motion_ddot": 0,
        "tle_line1": "1 30050U 99025PB  25342.84829586  .00002892  00000+0  22990-2 0  9993",
        "tle_line2": "2 30050  96.8178 304.0931 0171652  41.1757  16.7092 13.85031252951488"
      },
      "geometry": {
        "type": "Point",
        "coordinates": [
          121.52301780684616,
          -22.59875360352176
        ]
      }
    },
    {
      "type": "Feature",
      "properties": {
        "norad_id": 30052,
        "name": "FENGYUN 1C DEB",
        "group": "fengyun-1c-debris",
        "lat": -80.51731451947059,
        "lon": 87.7230581013576,
        "alt_km": 811.1148849589481,
        "timestamp": "2025-12-09T05:43:20.999150+00:00",
        "meta_object_name": "FENGYUN 1C DEB",
        "meta_object_id": "1999-025PD",
        "meta_epoch": "2025-12-08T20:32:52.955808",
        "meta_mean_motion": 13.72954065,
        "meta_eccentricity": 0.0288905,
        "meta_inclination": 99.2995,
        "meta_ra_of_asc_node": 8.5578,
        "meta_arg_of_pericenter": 242.4589,
        "meta_mean_anomaly": 299.3211,
        "meta_ephemeris_type": 0,
        "meta_classification_type": "U",
        "meta_norad_cat_id": 30052,
        "meta_element_set_no": 999,
        "meta_rev_at_epoch": 94501,
        "meta_bstar": 0.00081868,
        "meta_mean_motion_dot": 9.74e-06,
        "meta_mean_motion_ddot": 0,
        "tle_line1": "1 30052U 99025PD  25342.85616847  .00000974  00000+0  81868-3 0  9999",
        "tle_line2": "2 30052  99.2995   8.5578 0288905 242.4589 299.3211 13.72954065945012"
      },
      "geometry": {
        "type": "Point",
        "coordinates": [
          87.7230581013576,
          -80.51731451947059
        ]
      }
    },
    {
      "type": "Feature",
      "properties": {
        "norad_id": 30053,
        "name": "FENGYUN 1C DEB",
        "group": "fengyun-1c-debris",
        "lat": -18.97243129266825,
        "lon": -26.3861248778035,
        "alt_km": 1124.566021746179,
        "timestamp": "2025-12-09T05:43:20.999161+00:00",
        "meta_object_name": "FENGYUN 1C DEB",
        "meta_object_id": "1999-025PE",
        "meta_epoch": "2025-12-08T11:49:46.710336",
        "meta_mean_motion": 13.94103348,
        "meta_eccentricity": 0.03316573,
        "meta_inclination": 98.5757,
        "meta_ra_of_asc_node": 155.8939,
        "meta_arg_of_pericenter": 350.2177,
        "meta_mean_anomaly": 71.2493,
        "meta_ephemeris_type": 0,
        "meta_classification_type": "U",
        "meta_norad_cat_id": 30053,
        "meta_element_set_no": 999,
        "meta_rev_at_epoch": 94927,
        "meta_bstar": 0.0020831311,
        "meta_mean_motion_dot": 4.317e-05,
        "meta_mean_motion_ddot": 0,
        "tle_line1": "1 30053U 99025PE  25342.49290174  .00004317  00000+0  20831-2 0  9998",
        "tle_line2": "2 30053  98.5757 155.8939 0331657 350.2177  71.2493 13.94103348949277"
      },
      "geometry": {
        "type": "Point",
        "coordinates": [
          -26.3861248778035,
          -18.97243129266825
        ]
      }
    },
    {
      "type": "Feature",
      "properties": {
        "norad_id": 30054,
        "name": "FENGYUN 1C DEB",
        "group": "fengyun-1c-debris",
        "lat": -60.70018348224686,
        "lon": 178.4468342358831,
        "alt_km": 1141.1189171411215,
        "timestamp": "2025-12-09T05:43:20.999172+00:00",
        "meta_object_name": "FENGYUN 1C DEB",
        "meta_object_id": "1999-025PF",
        "meta_epoch": "2025-12-08T13:29:51.980352",
        "meta_mean_motion": 13.69858152,
        "meta_eccentricity": 0.0276056,
        "meta_inclination": 99.3719,
        "meta_ra_of_asc_node": 14.9028,
        "meta_arg_of_pericenter": 16.1084,
        "meta_mean_anomaly": 136.2402,
        "meta_ephemeris_type": 0,
        "meta_classification_type": "U",
        "meta_norad_cat_id": 30054,
        "meta_element_set_no": 999,
        "meta_rev_at_epoch": 94291,
        "meta_bstar": 0.00092105,
        "meta_mean_motion_dot": 1.012e-05,
        "meta_mean_motion_ddot": 0,
        "tle_line1": "1 30054U 99025PF  25342.56240718  .00001012  00000+0  92105-3 0  9999",
        "tle_line2": "2 30054  99.3719  14.9028 0276056  16.1084 136.2402 13.69858152942913"
      },
      "geometry": {
        "type": "Point",
        "coordinates": [
          178.4468342358831,
          -60.70018348224686
        ]
      }
    },
    {
      "type": "Feature",
      "properties": {
        "norad_id": 30056,
        "name": "FENGYUN 1C DEB",
        "group": "fengyun-1c-debris",
        "lat": 46.920962333473156,
        "lon": -1.66578804764226,
        "alt_km": 966.6661521004135,
        "timestamp": "2025-12-09T05:43:20.999183+00:00",
        "meta_object_name": "FENGYUN 1C DEB",
        "meta_object_id": "1999-025PH",
        "meta_epoch": "2025-12-08T11:34:29.771328",
        "meta_mean_motion": 13.73938715,
        "meta_eccentricity": 0.0299887,
        "meta_inclination": 98.3222,
        "meta_ra_of_asc_node": 168.669,
        "meta_arg_of_pericenter": 222.3237,
        "meta_mean_anomaly": 135.4425,
        "meta_ephemeris_type": 0,
        "meta_classification_type": "U",
        "meta_norad_cat_id": 30056,
        "meta_element_set_no": 999,
        "meta_rev_at_epoch": 93917,
        "meta_bstar": 0.0042000706,
        "meta_mean_motion_dot": 5.417e-05,
        "meta_mean_motion_ddot": 0,
        "tle_line1": "1 30056U 99025PH  25342.48228902  .00005417  00000+0  42001-2 0  9995",
        "tle_line2": "2 30056  98.3222 168.6690 0299887 222.3237 135.4425 13.73938715939172"
      },
      "geometry": {
        "type": "Point",
        "coordinates": [
          -1.66578804764226,
          46.920962333473156
        ]
      }
    },
    {
      "type": "Feature",
      "properties": {
        "norad_id": 30057,
        "name": "FENGYUN 1C DEB",
        "group": "fengyun-1c-debris",
        "lat": 68.11010578660414,
        "lon": -104.78406874109211,
        "alt_km": 883.7150972998616,
        "timestamp": "2025-12-09T05:43:20.999193+00:00",
        "meta_object_name": "FENGYUN 1C DEB",
        "meta_object_id": "1999-025PJ",
        "meta_epoch": "2025-12-08T15:46:40.191168",
        "meta_mean_motion": 13.57107148,
        "meta_eccentricity": 0.0292787,
        "meta_inclination": 98.8833,
        "meta_ra_of_asc_node": 51.7836,
        "meta_arg_of_pericenter": 156.9449,
        "meta_mean_anomaly": 358.2933,
        "meta_ephemeris_type": 0,
        "meta_classification_type": "U",
        "meta_norad_cat_id": 30057,
        "meta_element_set_no": 999,
        "meta_rev_at_epoch": 93180,
        "meta_bstar": 0.0020984,
        "meta_mean_motion_dot": 1.937e-05,
        "meta_mean_motion_ddot": 0,
        "tle_line1": "1 30057U 99025PJ  25342.65740962  .00001937  00000+0  20984-2 0  9999",
        "tle_line2": "2 30057  98.8833  51.7836 0292787 156.9449 358.2933 13.57107148931800"
      },
      "geometry": {
        "type": "Point",
        "coordinates": [
          -104.78406874109211,
          68.11010578660414
        ]
      }
    },
    {
      "type": "Feature",
      "properties": {
        "norad_id": 30058,
        "name": "FENGYUN 1C DEB",
        "group": "fengyun-1c-debris",
        "lat": -65.42613838048145,
        "lon": 9.440267206303687,
        "alt_km": 1238.2852295127213,
        "timestamp": "2025-12-09T05:43:20.999204+00:00",
        "meta_object_name": "FENGYUN 1C DEB",
        "meta_object_id": "1999-025PK",
        "meta_epoch": "2025-12-08T14:38:04.965216",
        "meta_mean_motion": 13.48231745,
        "meta_eccentricity": 0.0315708,
        "meta_inclination": 99.6494,
        "meta_ra_of_asc_node": 346.9911,
        "meta_arg_of_pericenter": 162.6271,
        "meta_mean_anomaly": 317.6668,
        "meta_ephemeris_type": 0,
        "meta_classification_type": "U",
        "meta_norad_cat_id": 30058,
        "meta_element_set_no": 999,
        "meta_rev_at_epoch": 92792,
        "meta_bstar": 0.00086454,
        "meta_mean_motion_dot": 6.85e-06,
        "meta_mean_motion_ddot": 0,
        "tle_line1": "1 30058U 99025PK  25342.60977969  .00000685  00000+0  86454-3 0  9998",
        "tle_line2": "2 30058  99.6494 346.9911 0315708 162.6271 317.6668 13.48231745927925"
      },
      "geometry": {
        "type": "Point",
        "coordinates": [
          9.440267206303687,
          -65.42613838048145
        ]
      }
    }
  ]
}